[{"OBJECT_NAME":"ONEWEB-0670","OBJECT_ID":"2023-029AK","EPOCH":"2026-03-09T17:25:56.142336","MEAN_MOTION":13.14503616,"ECCENTRICITY":0.00012565,"INCLINATION":87.8976,"RA_OF_ASC_NODE":309.5972,"ARG_OF_PERICENTER":89.4725,"MEAN_ANOMALY":270.6549,"EPHEMERIS_TYPE":0,"CLASSIFICATION_TYPE":"U","NORAD_CAT_ID":55829,"ELEMENT_SET_NO":999,"REV_AT_EPOCH":14636,"BSTAR":0.00060465062,"MEAN_MOTION_DOT":2.37e-6,"MEAN_MOTION_DDOT":0},{"OBJECT_NAME":"DELTA 1 DEB","OBJECT_ID":"1972-058GT","EPOCH":"2026-03-09T03:11:42.187488","MEAN_MOTION":12.7418797,"ECCENTRICITY":0.0840146,"INCLINATION":97.4426,"RA_OF_ASC_NODE":143.2224,"ARG_OF_PERICENTER":345.2808,"MEAN_ANOMALY":12.5128,"EPHEMERIS_TYPE":0,"CLASSIFICATION_TYPE":"U","NORAD_CAT_ID":8544,"ELEMENT_SET_NO":999,"REV_AT_EPOCH":50524,"BSTAR":0.00018980273,"MEAN_MOTION_DOT":1.5e-6,"MEAN_MOTION_DDOT":0}]
